GLOBALSTAR M094         
1 39074U 13005C   24225.20067129 -.00000102  00000+0  10561-4 0  9994
2 39074  51.9968  42.8889 0000655  64.7601 295.3334 12.62266699533371
GLOBALSTAR M096         
1 39075U 13005D   24225.13474548 -.00000089  00000+0  82327-4 0  9997
2 39075  52.0070  91.3645 0000550  39.4484 320.6422 12.62268656532610
GLOBALSTAR M078         
1 39076U 13005E   24224.87077298 -.00000081  00000+0  12459-3 0  9999
2 39076  51.9858 177.0975 0000665 203.7039 156.3797 12.62273633530854
GLOBALSTAR M095         
1 39077U 13005F   24225.13461338 -.00000082  00000+0  12231-3 0  9991
2 39077  51.9786 173.6436 0000386 278.6191  81.4632 12.62262962531107
GLOBALSTAR M087         
1 52888U 22064A   24225.15079166 -.00000070  00000+0  11127-3 0  9997
2 52888  51.9776  13.2373 0009915 143.0238 217.1348 13.37580962105019
